[{"OBJECT_NAME":"STARLINK-1816","OBJECT_ID":"2020-073AW","EPOCH":"2026-03-10T00:00:02.999808","MEAN_MOTION":15.7373021,"ECCENTRICITY":0.00013796,"INCLINATION":53.0412,"RA_OF_ASC_NODE":197.1696,"ARG_OF_PERICENTER":136.5835,"MEAN_ANOMALY":114.6456,"EPHEMERIS_TYPE":0,"CLASSIFICATION_TYPE":"U","NORAD_CAT_ID":46714,"ELEMENT_SET_NO":999,"REV_AT_EPOCH":597,"BSTAR":0.00068317035,"MEAN_MOTION_DOT":0.00098636,"MEAN_MOTION_DDOT":0},{"OBJECT_NAME":"STARLINK-11567 [DTC]","OBJECT_ID":"2025-027C","EPOCH":"2026-03-09T03:37:22.640736","MEAN_MOTION":15.70872705,"ECCENTRICITY":0.00021789,"INCLINATION":43,"RA_OF_ASC_NODE":351.2484,"ARG_OF_PERICENTER":279.9904,"MEAN_ANOMALY":80.0718,"EPHEMERIS_TYPE":0,"CLASSIFICATION_TYPE":"U","NORAD_CAT_ID":62909,"ELEMENT_SET_NO":999,"REV_AT_EPOCH":6306,"BSTAR":0.0023607092,"MEAN_MOTION_DOT":0.00314647,"MEAN_MOTION_DDOT":0}]
